[{"OBJECT_NAME":"KUIPER-00119","OBJECT_ID":"2025-171Z","EPOCH":"2026-03-09T13:41:23.129376","MEAN_MOTION":14.80048396,"ECCENTRICITY":7.9e-5,"INCLINATION":51.8996,"RA_OF_ASC_NODE":163.6949,"ARG_OF_PERICENTER":154.2212,"MEAN_ANOMALY":205.8789,"EPHEMERIS_TYPE":0,"CLASSIFICATION_TYPE":"U","NORAD_CAT_ID":65155,"ELEMENT_SET_NO":999,"REV_AT_EPOCH":3279,"BSTAR":0.0007766,"MEAN_MOTION_DOT":5.72e-5,"MEAN_MOTION_DDOT":0},{"OBJECT_NAME":"SL-14 R\/B","OBJECT_ID":"1987-055B","EPOCH":"2026-03-09T21:07:11.149824","MEAN_MOTION":14.85629907,"ECCENTRICITY":0.00211346,"INCLINATION":82.503,"RA_OF_ASC_NODE":348.8521,"ARG_OF_PERICENTER":17.214,"MEAN_ANOMALY":342.9788,"EPHEMERIS_TYPE":0,"CLASSIFICATION_TYPE":"U","NORAD_CAT_ID":18153,"ELEMENT_SET_NO":999,"REV_AT_EPOCH":6996,"BSTAR":7.8350506e-5,"MEAN_MOTION_DOT":7.05e-6,"MEAN_MOTION_DDOT":0}]
